NORAD_CAT_ID,OBJECT_NAME,OBJECT_TYPE,EPOCH,MEAN_MOTION,ECCENTRICITY,INCLINATION,RA_OF_ASC_NODE,ARG_OF_PERICENTER,MEAN_ANOMALY,BSTAR,MEAN_MOTION_DOT,MEAN_MOTION_DDOT,TLE_LINE0,TLE_LINE1,TLE_LINE2,SEMIMAJOR_AXIS,PERIOD,APOGEE,PERIGEE,DECAYED
51108.0,STARLINK-3362,PAYLOAD,2023-05-11 00:48:37,15.08851896,7.29e-05,53.215,249.3819,81.9129,278.1946,0.001095,0.00017188,0.0,0 STARLINK-3362,1 51108U 22005E   23131.03376624  .00017188  00000-0  10950-2 0  9997,2 51108  53.2150 249.3819 0000729  81.9129 278.1946 15.08851896 72835,6917.844,95.437,540.213,539.205,0.0
51108.0,STARLINK-3362,PAYLOAD,2023-05-11 15:07:05,15.08844285,0.0001315,53.2159,246.7051,85.0966,275.0176,0.00073152,0.00011375,0.0,0 STARLINK-3362,1 51108U 22005E   23131.62992775  .00011375  00000-0  73152-3 0  9999,2 51108  53.2159 246.7051 0001315  85.0966 275.0176 15.08844285 74027,6917.867,95.437,540.642,538.823,0.0
51108.0,STARLINK-3362,PAYLOAD,2023-05-12 00:39:24,15.08844085,9.53e-05,53.2153,244.9221,101.8656,258.2443,0.00045834,7.015e-05,0.0,0 STARLINK-3362,1 51108U 22005E   23132.02736657  .00007015  00000-0  45834-3 0  9991,2 51108  53.2153 244.9221 0000953 101.8656 258.2443 15.08844085 74084,6917.868,95.437,540.392,539.074,0.0
51108.0,STARLINK-3362,PAYLOAD,2023-05-12 14:57:52,15.08842526,9.48e-05,53.2146,242.2451,93.4229,266.6872,0.00015438,2.17e-05,0.0,0 STARLINK-3362,1 51108U 22005E   23132.62352749  .00002170  00000-0  15438-3 0  9997,2 51108  53.2146 242.2451 0000948  93.4229 266.6872 15.08842526 74175,6917.873,95.437,540.393,539.082,0.0
51108.0,STARLINK-3362,PAYLOAD,2023-05-13 00:30:11,15.08837753,0.0001222,53.2141,240.4658,75.9472,284.1655,0.00012778,1.746e-05,0.0,0 STARLINK-3362,1 51108U 22005E   23133.02097115  .00001746  00000-0  12778-3 0  9997,2 51108  53.2141 240.4658 0001222  75.9472 284.1655 15.08837753 74237,6917.887,95.438,540.598,538.907,0.0
51108.0,STARLINK-3362,PAYLOAD,2023-05-13 13:13:17,15.08836984,0.0001141,53.2162,238.0805,85.6769,274.4354,-3.6411e-05,-8.67e-06,0.0,0 STARLINK-3362,1 51108U 22005E   23133.55089398 -.00000867  00000-0 -36411-4 0  9995,2 51108  53.2162 238.0805 0001141  85.6769 274.4354 15.08836984 74316,6917.89,95.438,540.544,538.965,0.0
51108.0,STARLINK-3362,PAYLOAD,2023-05-14 00:20:59,15.08839754,0.0001273,53.2165,236.0022,77.5429,282.5705,5.824e-05,6.39e-06,0.0,0 STARLINK-3362,1 51108U 22005E   23134.01457466  .00000639  00000-0  58240-4 0  9991,2 51108  53.2165 236.0022 0001273  77.5429 282.5705 15.08839754 74382,6917.881,95.438,540.627,538.865,0.0
51108.0,STARLINK-3362,PAYLOAD,2023-05-14 11:28:41,15.0883929,0.0001151,53.217,233.919,79.6154,280.4968,0.00019771,2.86e-05,0.0,0 STARLINK-3362,1 51108U 22005E   23134.47825698  .00002860  00000-0  19771-3 0  9990,2 51108  53.2170 233.9190 0001151  79.6154 280.4968 15.08839290 74454,6917.883,95.438,540.544,538.951,0.0
51108.0,STARLINK-3362,PAYLOAD,2023-05-14 16:14:51,15.08833624,0.0001181,53.2174,233.0248,94.0963,266.0164,0.00057982,8.95e-05,0.0,0 STARLINK-3362,1 51108U 22005E   23134.67698039  .00008950  00000-0  57982-3 0  9991,2 51108  53.2174 233.0248 0001181  94.0963 266.0164 15.08833624 74481,6917.9,95.438,540.582,538.948,0.0
51108.0,STARLINK-3362,PAYLOAD,2023-05-15 00:11:46,15.08843208,0.0001054,53.2162,231.5362,99.9046,260.2065,0.00013456,1.855e-05,0.0,0 STARLINK-3362,1 51108U 22005E   23135.00817330  .00001855  00000-0  13456-3 0  9991,2 51108  53.2162 231.5362 0001054  99.9046 260.2065 15.08843208 74534,6917.871,95.437,540.465,539.006,0.0
51108.0,STARLINK-3362,PAYLOAD,2023-05-15 11:19:28,15.08831297,0.0001072,53.2161,229.4557,98.0142,262.0972,0.00034745,5.245e-05,0.0,0 STARLINK-3362,1 51108U 22005E   23135.47186195  .00005245  00000-0  34745-3 0  9991,2 51108  53.2161 229.4557 0001072  98.0142 262.0972 15.08831297 74602,6917.907,95.438,540.514,539.03,0.0
51108.0,STARLINK-3362,PAYLOAD,2023-05-16 06:24:05,15.08840587,0.0001198,53.216,225.8865,104.1049,256.0076,2.696e-05,1.41e-06,0.0,0 STARLINK-3362,1 51108U 22005E   23136.26673606  .00000141  00000-0  26960-4 0  9998,2 51108  53.2160 225.8865 0001198 104.1049 256.0076 15.08840587 74720,6917.879,95.438,540.572,538.915,0.0
51108.0,STARLINK-3362,PAYLOAD,2023-05-16 12:45:38,15.08841354,0.0001115,53.2167,224.6979,104.3687,255.7429,3.15e-05,2.14e-06,0.0,0 STARLINK-3362,1 51108U 22005E   23136.53169602  .00000214  00000-0  31500-4 0  9991,2 51108  53.2167 224.6979 0001115 104.3687 255.7429 15.08841354 74764,6917.876,95.437,540.513,538.97,0.0
51108.0,STARLINK-3362,PAYLOAD,2023-05-16 22:17:57,15.08840474,0.0001084,53.2165,222.9147,95.2823,264.8293,8.8338e-06,-1.47e-06,0.0,0 STARLINK-3362,1 51108U 22005E   23136.92913684 -.00000147  00000-0  88338-5 0  9999,2 51108  53.2165 222.9147 0001084  95.2823 264.8293 15.08840474 74824,6917.879,95.438,540.494,538.994,0.0
51108.0,STARLINK-3362,PAYLOAD,2023-05-17 11:01:02,15.08836757,0.0001021,53.2161,220.5378,88.7235,271.3874,5.7027e-05,6.2e-06,0.0,0 STARLINK-3362,1 51108U 22005E   23137.45905890  .00000620  00000-0  57027-4 0  9993,2 51108  53.2161 220.5378 0001021  88.7235 271.3874 15.08836757 74901,6917.89,95.438,540.462,539.049,0.0
51108.0,STARLINK-3362,PAYLOAD,2023-05-17 12:36:25,15.08839386,0.0001035,53.2161,220.2399,94.2312,265.8798,7.23e-05,8.63e-06,0.0,0 STARLINK-3362,1 51108U 22005E   23137.52529670  .00000863  00000-0  72300-4 0  9999,2 51108  53.2161 220.2399 0001035  94.2312 265.8798 15.08839386 74919,6917.882,95.438,540.463,539.031,0.0
51108.0,STARLINK-3362,PAYLOAD,2023-05-17 22:08:44,15.08837344,0.0001,53.2156,218.457,96.9487,263.1619,6.0432e-05,6.74e-06,0.0,0 STARLINK-3362,1 51108U 22005E   23137.92273848  .00000674  00000-0  60432-4 0  9999,2 51108  53.2156 218.4570 0001000  96.9487 263.1619 15.08837344 74978,6917.889,95.438,540.445,539.062,0.0
51108.0,STARLINK-3362,PAYLOAD,2023-05-18 10:51:49,15.08837421,0.0001013,53.2156,216.0777,102.0844,258.0261,5.832e-05,6.4e-06,0.0,0 STARLINK-3362,1 51108U 22005E   23138.45265887  .00000640  00000-0  58320-4 0  9998,2 51108  53.2156 216.0777 0001013 102.0844 258.0261 15.08837421 75053,6917.888,95.438,540.454,539.052,0.0
51108.0,STARLINK-3362,PAYLOAD,2023-05-18 14:02:35,15.08840094,9.96e-05,53.2157,215.4832,96.8512,263.2594,7.7962e-05,9.53e-06,0.0,0 STARLINK-3362,1 51108U 22005E   23138.58513689  .00000953  00000-0  77962-4 0  9998,2 51108  53.2157 215.4832 0000996  96.8512 263.2594 15.08840094 73976,6917.88,95.438,540.434,539.056,0.0
51108.0,STARLINK-3362,PAYLOAD,2023-05-18 21:59:31,15.08839356,9.87e-05,53.2161,213.997,90.8776,269.2329,7.5112e-05,9.08e-06,0.0,0 STARLINK-3362,1 51108U 22005E   23138.91633775  .00000908  00000-0  75112-4 0  9999,2 51108  53.2161 213.9970 0000987  90.8776 269.2329 15.08839356 74021,6917.882,95.438,540.43,539.065,0.0
51108.0,STARLINK-3362,PAYLOAD,2023-05-19 09:07:13,15.08835613,0.0001012,53.216,211.9154,90.5956,269.5153,4.1281e-05,3.69e-06,0.0,0 STARLINK-3362,1 51108U 22005E   23139.38002192  .00000369  00000-0  41281-4 0  9995,2 51108  53.2160 211.9154 0001012  90.5956 269.5153 15.08835613 75198,6917.894,95.438,540.459,539.059,0.0
51108.0,STARLINK-3362,PAYLOAD,2023-05-19 12:18:00,15.08839114,0.0001001,53.2162,211.3206,89.2926,270.818,2.9291e-05,1.78e-06,0.0,0 STARLINK-3362,1 51108U 22005E   23139.51250029  .00000178  00000-0  29291-4 0  9999,2 51108  53.2162 211.3206 0001001  89.2926 270.8180 15.08839114 75210,6917.883,95.438,540.441,539.056,0.0
51108.0,STARLINK-3362,PAYLOAD,2023-05-19 21:50:18,15.08839498,0.0001067,53.2166,209.5368,82.8653,277.246,4.634e-05,4.5e-06,0.0,0 STARLINK-3362,1 51108U 22005E   23139.90993984  .00000450  00000-0  46340-4 0  9993,2 51108  53.2166 209.5368 0001067  82.8653 277.2460 15.08839498 74171,6917.882,95.438,540.485,539.009,0.0
51108.0,STARLINK-3362,PAYLOAD,2023-05-20 10:33:23,15.08845646,0.0001018,53.2162,207.1576,82.6514,277.4593,6.1905e-05,6.98e-06,0.0,0 STARLINK-3362,1 51108U 22005E   23140.43985565  .00000698  00000-0  61905-4 0  9997,2 51108  53.2162 207.1576 0001018  82.6514 277.4593 15.08845646 75354,6917.863,95.437,540.432,539.024,0.0
51108.0,STARLINK-3362,PAYLOAD,2023-05-20 12:08:46,15.08849018,0.0001072,53.2165,206.8604,82.4301,277.6812,9.2076e-05,1.178e-05,0.0,0 STARLINK-3362,1 51108U 22005E   23140.50609280  .00001178  00000-0  92076-4 0  9999,2 51108  53.2165 206.8604 0001072  82.4301 277.6812 15.08849018 75361,6917.853,95.437,540.459,538.976,0.0
51108.0,STARLINK-3362,PAYLOAD,2023-05-20 21:41:05,15.08848215,0.000117,53.2169,205.0759,80.921,279.1914,9.1428e-05,1.168e-05,0.0,0 STARLINK-3362,1 51108U 22005E   23140.90353184  .00001168  00000-0  91428-4 0  9991,2 51108  53.2169 205.0759 0001170  80.9210 279.1914 15.08848215 74321,6917.855,95.437,540.53,538.911,0.0
51108.0,STARLINK-3362,PAYLOAD,2023-05-21 04:02:37,15.08843363,0.0001203,53.2169,203.8871,81.6079,278.505,7.5917e-05,9.21e-06,0.0,0 STARLINK-3362,1 51108U 22005E   23141.16849513  .00000921  00000-0  75917-4 0  9997,2 51108  53.2169 203.8871 0001203  81.6079 278.5050 15.08843363 75469,6917.87,95.437,540.567,538.903,0.0
51108.0,STARLINK-3362,PAYLOAD,2023-05-21 10:24:10,15.08841366,0.0001221,53.217,202.6979,80.7238,279.3892,7.5494e-05,9.14e-06,0.0,0 STARLINK-3362,1 51108U 22005E   23141.43345610  .00000914  00000-0  75494-4 0  9998,2 51108  53.2170 202.6979 0001221  80.7238 279.3892 15.08841366 74401,6917.876,95.437,540.586,538.897,0.0
51108.0,STARLINK-3362,PAYLOAD,2023-05-21 21:31:52,15.08840271,0.0001199,53.2167,200.6168,79.0234,281.0893,4.4855e-05,4.26e-06,0.0,0 STARLINK-3362,1 51108U 22005E   23141.89713729  .00000426  00000-0  44855-4 0  9993,2 51108  53.2167 200.6168 0001199  79.0234 281.0893 15.08840271 74478,6917.88,95.438,540.574,538.915,0.0
51108.0,STARLINK-3362,PAYLOAD,2023-05-22 03:53:25,15.08830598,0.0001367,53.2171,199.4279,80.5218,279.5928,9.1846e-05,1.174e-05,0.0,0 STARLINK-3362,1 51108U 22005E   23142.16210310  .00001174  00000-0  91846-4 0  9995,2 51108  53.2171 199.4279 0001367  80.5218 279.5928 15.08830598 75616,6917.909,95.438,540.72,538.828,0.0
